NORAD_CAT_ID,OBJECT_NAME,OBJECT_TYPE,EPOCH,MEAN_MOTION,ECCENTRICITY,INCLINATION,RA_OF_ASC_NODE,ARG_OF_PERICENTER,MEAN_ANOMALY,BSTAR,MEAN_MOTION_DOT,MEAN_MOTION_DDOT,TLE_LINE0,TLE_LINE1,TLE_LINE2,SEMIMAJOR_AXIS,PERIOD,APOGEE,PERIGEE,DECAYED
52587.0,STARLINK-3867,PAYLOAD,2023-09-12 10:26:20,15.1012522,0.0001306,53.2165,240.7822,108.9828,251.1306,-0.0026565,-0.00043823,0.0,0 STARLINK-3867,1 52587U 22051BD  23255.43495850 -.00043823  00000-0 -26565-2 0  9990,2 52587  53.2165 240.7822 0001306 108.9828 251.1306 15.10125220 74392,6913.955,95.356,536.723,534.917,0.0
52587.0,STARLINK-3867,PAYLOAD,2023-09-12 13:37:04,15.10014609,0.0002068,53.2165,240.1872,55.1374,304.9812,-0.0034675,-0.00056839,0.0,0 STARLINK-3867,1 52587U 22051BD  23255.56741886 -.00056839  00000-0 -34675-2 0  9999,2 52587  53.2165 240.1872 0002068  55.1374 304.9812 15.10014609 74348,6914.292,95.363,537.587,534.728,0.0
52587.0,STARLINK-3867,PAYLOAD,2023-09-12 15:12:24,15.09988786,0.0001196,53.2165,239.8897,101.8813,258.2314,-0.003633,-0.00059471,0.0,0 STARLINK-3867,1 52587U 22051BD  23255.63362172 -.00059471  00000-0 -36330-2 0  9999,2 52587  53.2165 239.8897 0001196 101.8813 258.2314 15.09988786 74429,6914.371,95.365,537.063,535.409,0.0
52587.0,STARLINK-3867,PAYLOAD,2023-09-12 16:47:43,15.09984223,0.0001481,53.2179,239.5931,62.8322,297.2822,-0.0036774,-0.00060181,0.0,0 STARLINK-3867,1 52587U 22051BD  23255.69981243 -.00060181  00000-0 -36774-2 0  9993,2 52587  53.2179 239.5931 0001481  62.8322 297.2822 15.09984223 74360,6914.385,95.365,537.274,535.226,0.0
52587.0,STARLINK-3867,PAYLOAD,2023-09-13 02:19:51,15.09773042,0.0001618,53.2154,237.8061,128.4283,231.6855,-0.0048619,-0.00078809,0.0,0 STARLINK-3867,1 52587U 22051BD  23256.09712862 -.00078809  00000-0 -48619-2 0  9994,2 52587  53.2154 237.8061 0001618 128.4283 231.6855 15.09773042 74492,6915.03,95.379,538.014,535.776,0.0
52587.0,STARLINK-3867,PAYLOAD,2023-09-13 14:00:01,15.08852228,0.0001118,53.2142,235.6227,84.2704,39.6568,-0.0020954,-0.00033492,0.0,0 STARLINK-3867,1 52587U 22051BD  23256.58334491 -.00033492  00000-0 -20954-2 0  9997,2 52587  53.2142 235.6227 0001118  84.2704  39.6568 15.08852228 74569,6917.843,95.437,540.481,538.935,0.0
52587.0,STARLINK-3867,PAYLOAD,2023-09-13 22:00:00,15.08821258,0.0001231,53.2147,234.125,99.3354,36.1938,0.0021838,0.0003462,0.0,0 STARLINK-3867,1 52587U 22051BD  23256.91667824  .00034620  00000-0  21838-2 0  9997,2 52587  53.2147 234.1250 0001231  99.3354  36.1938 15.08821258  5812,6917.938,95.439,540.654,538.951,0.0
52587.0,STARLINK-3867,PAYLOAD,2023-09-14 06:00:00,15.08845289,0.000129,53.2147,232.6305,89.3165,57.7983,-0.0023398,-0.00037338,0.0,0 STARLINK-3867,1 52587U 22051BD  23257.25001157 -.00037338  00000-0 -23398-2 0  9990,2 52587  53.2147 232.6305 0001290  89.3165  57.7983 15.08845289 74668,6917.864,95.437,540.622,538.837,0.0
52587.0,STARLINK-3867,PAYLOAD,2023-09-14 14:00:01,15.08837673,0.0001274,53.2146,231.1332,93.0848,65.677,-0.0011843,-0.00019085,0.0,0 STARLINK-3867,1 52587U 22051BD  23257.58335648 -.00019085  00000-0 -11843-2 0  9992,2 52587  53.2146 231.1332 0001274  93.0848  65.6770 15.08837673  5768,6917.888,95.438,540.634,538.871,0.0
52587.0,STARLINK-3867,PAYLOAD,2023-09-14 22:00:00,15.08830669,0.0001364,53.2151,229.6359,103.157,67.1242,0.0020058,0.0003177,0.0,0 STARLINK-3867,1 52587U 22051BD  23257.91667824  .00031770  00000-0  20058-2 0  9994,2 52587  53.2151 229.6359 0001364 103.1570  67.1242 15.08830669 74765,6917.909,95.438,540.718,538.83,0.0
52587.0,STARLINK-3867,PAYLOAD,2023-09-15 14:00:01,15.08849798,0.0001289,53.2148,226.6438,101.6953,91.7727,-0.0012164,-0.000196,0.0,0 STARLINK-3867,1 52587U 22051BD  23258.58334491 -.00019600  00000-0 -12164-2 0  9998,2 52587  53.2148 226.6438 0001289 101.6953  91.7727 15.08849798 74865,6917.85,95.437,540.607,538.824,0.0
52587.0,STARLINK-3867,PAYLOAD,2023-09-16 06:00:00,15.08863967,0.0001299,53.215,223.6521,94.9515,121.728,-0.0040117,-0.00063612,0.0,0 STARLINK-3867,1 52587U 22051BD  23259.25001157 -.00063612  00000-0 -40117-2 0  9994,2 52587  53.2150 223.6521 0001299  94.9515 121.7280 15.08863967 74971,6917.807,95.436,540.571,538.774,0.0
52587.0,STARLINK-3867,PAYLOAD,2023-09-16 14:00:01,15.08828733,0.0001244,53.2148,222.1545,96.8301,131.4439,-0.001093,-0.00017635,0.0,0 STARLINK-3867,1 52587U 22051BD  23259.58334491 -.00017635  00000-0 -10930-2 0  9994,2 52587  53.2148 222.1545 0001244  96.8301 131.4439 15.08828733  5815,6917.915,95.438,540.64,538.919,0.0
52587.0,STARLINK-3867,PAYLOAD,2023-09-16 22:00:00,15.08837277,0.0001332,53.2164,220.655,92.0216,147.8202,-1.0368e-05,-4.53e-06,0.0,0 STARLINK-3867,1 52587U 22051BD  23259.91667824 -.00000453  00000-0 -10368-4 0  9997,2 52587  53.2164 220.6550 0001332  92.0216 147.8202 15.08837277 75070,6917.889,95.438,540.675,538.832,0.0
52587.0,STARLINK-3867,PAYLOAD,2023-09-17 06:28:49,15.08838168,0.0001309,53.2167,219.071,86.8247,273.2895,3.151e-05,2.14e-06,0.0,0 STARLINK-3867,1 52587U 22051BD  23260.27001236  .00000214  00000-0  31510-4 0  9992,2 52587  53.2167 219.0710 0001309  86.8247 273.2895 15.08838168 75052,6917.886,95.438,540.657,538.845,0.0
52587.0,STARLINK-3867,PAYLOAD,2023-09-18 03:08:49,15.08844754,0.0001336,53.216,215.2071,110.6839,249.4296,1.0057e-05,-1.28e-06,0.0,0 STARLINK-3867,1 52587U 22051BD  23261.13112897 -.00000128  00000-0  10057-4 0  9992,2 52587  53.2160 215.2071 0001336 110.6839 249.4296 15.08844754 75256,6917.866,95.437,540.655,538.807,0.0
52587.0,STARLINK-3867,PAYLOAD,2023-09-18 06:19:35,15.08851697,0.0001457,53.216,214.6107,112.803,247.3116,5.4149e-05,5.74e-06,0.0,0 STARLINK-3867,1 52587U 22051BD  23261.26360280  .00000574  00000-0  54149-4 0  9991,2 52587  53.2160 214.6107 0001457 112.8030 247.3116 15.08851697 75274,6917.845,95.437,540.718,538.702,0.0
52587.0,STARLINK-3867,PAYLOAD,2023-09-18 20:38:04,15.08838678,0.0001341,53.2161,211.9356,93.3861,266.7285,0.00010291,1.35e-05,0.0,0 STARLINK-3867,1 52587U 22051BD  23261.85977018  .00001350  00000-0  10291-3 0  9991,2 52587  53.2161 211.9356 0001341  93.3861 266.7285 15.08838678 75296,6917.884,95.438,540.677,538.822,0.0
52587.0,STARLINK-3867,PAYLOAD,2023-09-19 02:59:36,15.08844131,0.0001301,53.2158,210.7466,97.9296,262.1843,9.2432e-05,1.184e-05,0.0,0 STARLINK-3867,1 52587U 22051BD  23262.12472641  .00001184  00000-0  92432-4 0  9997,2 52587  53.2158 210.7466 0001301  97.9296 262.1843 15.08844131 75403,6917.868,95.437,540.633,538.833,0.0
52587.0,STARLINK-3867,PAYLOAD,2023-09-19 06:10:22,15.08849324,0.0001331,53.2156,210.1508,94.9977,265.1167,0.00013482,1.859e-05,0.0,0 STARLINK-3867,1 52587U 22051BD  23262.25720126  .00001859  00000-0  13482-3 0  9991,2 52587  53.2156 210.1508 0001331  94.9977 265.1167 15.08849324 75421,6917.852,95.437,540.638,538.796,0.0
52587.0,STARLINK-3867,PAYLOAD,2023-09-20 02:50:23,15.0884291,0.000149,53.2161,206.2859,90.096,270.0202,-9.6257e-06,-4.41e-06,0.0,0 STARLINK-3867,1 52587U 22051BD  23263.11832883 -.00000441  00000-0 -96257-5 0  9992,2 52587  53.2161 206.2859 0001490  90.0960 270.0202 15.08842910 75550,6917.871,95.437,540.767,538.706,0.0
52587.0,STARLINK-3867,PAYLOAD,2023-09-20 06:01:09,15.08848538,0.0001492,53.2172,205.6887,93.7328,266.3835,1.0974e-06,-2.71e-06,0.0,0 STARLINK-3867,1 52587U 22051BD  23263.25080443 -.00000271  00000-0  10974-5 0  9996,2 52587  53.2172 205.6887 0001492  93.7328 266.3835 15.08848538 75503,6917.854,95.437,540.751,538.687,0.0
52587.0,STARLINK-3867,PAYLOAD,2023-09-21 01:05:48,15.08838079,0.0002181,53.2179,202.1161,129.5984,230.5201,-0.00013656,-2.461e-05,0.0,0 STARLINK-3867,1 52587U 22051BD  23264.04569558 -.00002461  00000-0 -13656-3 0  9995,2 52587  53.2179 202.1161 0002181 129.5984 230.5201 15.08838079 75698,6917.886,95.438,541.26,538.242,0.0
52587.0,STARLINK-3867,PAYLOAD,2023-09-21 05:51:57,15.08837447,0.0001574,53.2175,201.2277,108.6898,251.4265,-9.4816e-05,-1.797e-05,0.0,0 STARLINK-3867,1 52587U 22051BD  23264.24441666 -.00001797  00000-0 -94816-4 0  9995,2 52587  53.2175 201.2277 0001574 108.6898 251.4265 15.08837447 75655,6917.888,95.438,540.842,538.664,0.0
52587.0,STARLINK-3867,PAYLOAD,2023-09-22 04:07:20,15.08847098,0.0001389,53.2174,197.0675,108.3788,251.7355,0.00015187,2.13e-05,0.0,0 STARLINK-3867,1 52587U 22051BD  23265.17176950  .00002130  00000-0  15187-3 0  9992,2 52587  53.2174 197.0675 0001389 108.3788 251.7355 15.08847098 75866,6917.859,95.437,540.685,538.763,0.0
52587.0,STARLINK-3867,PAYLOAD,2023-09-23 02:22:45,15.08839844,0.0001397,53.218,192.9089,103.1556,256.9592,0.00016847,2.394e-05,0.0,0 STARLINK-3867,1 52587U 22051BD  23266.09913659  .00002394  00000-0  16847-3 0  9995,2 52587  53.2180 192.9089 0001397 103.1556 256.9592 15.08839844 76008,6917.881,95.438,540.712,538.779,0.0
52587.0,STARLINK-3867,PAYLOAD,2023-09-23 03:58:08,15.08843009,0.0001421,53.2184,192.6101,100.7394,259.3759,0.00019509,2.819e-05,0.0,0 STARLINK-3867,1 52587U 22051BD  23266.16537373  .00002819  00000-0  19509-3 0  9998,2 52587  53.2184 192.6101 0001421 100.7394 259.3759 15.08843009 75947,6917.871,95.437,540.719,538.753,0.0
52587.0,STARLINK-3867,PAYLOAD,2023-09-24 03:48:55,15.08849817,0.0001433,53.2179,188.1479,98.2018,261.9137,5.8734e-05,6.47e-06,0.0,0 STARLINK-3867,1 52587U 22051BD  23267.15897384  .00000647  00000-0  58734-4 0  9990,2 52587  53.2179 188.1479 0001433  98.2018 261.9137 15.08849817 76163,6917.85,95.437,540.707,538.724,0.0
52587.0,STARLINK-3867,PAYLOAD,2023-09-25 02:04:19,15.08846726,0.0001508,53.218,183.9856,81.3835,278.7328,5.3077e-05,5.57e-06,0.0,0 STARLINK-3867,1 52587U 22051BD  23268.08633640  .00000557  00000-0  53077-4 0  9991,2 52587  53.2180 183.9856 0001508  81.3835 278.7328 15.08846726 76300,6917.86,95.437,540.768,538.682,0.0
52587.0,STARLINK-3867,PAYLOAD,2023-09-25 05:15:05,15.08853817,0.0001344,53.217,183.3871,80.5626,279.5518,8.2008e-05,1.018e-05,0.0,0 STARLINK-3867,1 52587U 22051BD  23268.21881000  .00001018  00000-0  82008-4 0  9990,2 52587  53.2170 183.3871 0001344  80.5626 279.5518 15.08853817 76328,6917.838,95.437,540.633,538.773,0.0
